CTC2_L_00490001-01
1 85840U 24961TN  26037.47796296  .00000000  00000+0  00000-0 0  9994
2 85840  88.0000   0.0000 0000000   0.0000   0.0000 13.16009617    18
CTC2_L_00490001-02
1 85841U 24872NK  26037.47796296  .00000000  00000+0  00000-0 0  9996
2 85841  88.0000   0.0000 0000000   0.0000  60.0000 13.16009617    15
CTC2_L_00490001-03
1 85842U 24410VK  26037.47796296  .00000000  00000+0  00000-0 0  9995
2 85842  88.0000   0.0000 0000000   0.0000 120.0000 13.16009617    13
CTC2_L_00490001-04
1 85843U 24131XK  26037.47796296  .00000000  00000+0  00000-0 0  9996
2 85843  88.0000   0.0000 0000000   0.0000 180.0000 13.16009617    10
CTC2_L_00490001-05
1 85844U 26862EY  26037.47796296  .00000000  00000+0  00000-0 0  9990
2 85844  88.0000   0.0000 0000000   0.0000 240.0000 13.16009617    18
CTC2_L_00490001-06
1 85845U 24295QH  26037.47796296  .00000000  00000+0  00000-0 0  9999
2 85845  88.0000   0.0000 0000000   0.0000 300.0000 13.16009617    16
CTC2_L_00490002-01
1 85846U 24666II  26037.47796296  .00000000  00000+0  00000-0 0  9992
2 85846  88.0000  12.0000 0000000   0.0000   8.0000 13.16009617    15
CTC2_L_00490002-02
1 85847U 25479NY  26037.47796296  .00000000  00000+0  00000-0 0  9996
2 85847  88.0000  12.0000 0000000   0.0000  68.0000 13.16009617    12
CTC2_L_00490002-03
1 85848U 23969JM  26037.47796296  .00000000  00000+0  00000-0 0  9999
2 85848  88.0000  12.0000 0000000   0.0000 128.0000 13.16009617    10
CTC2_L_00490002-04
1 85849U 24143TH  26037.47796296  .00000000  00000+0  00000-0 0  9995
2 85849  88.0000  12.0000 0000000   0.0000 188.0000 13.16009617    17
CTC2_L_00490002-05
1 85850U 24013DD  26037.47796296  .00000000  00000+0  00000-0 0  9993
2 85850  88.0000  12.0000 0000000   0.0000 248.0000 13.16009617    16
CTC2_L_00490002-06
1 85851U 24331MS  26037.47796296  .00000000  00000+0  00000-0 0  9997
2 85851  88.0000  12.0000 0000000   0.0000 308.0000 13.16009617    14
CTC2_L_00490003-01
1 85852U 23676GJ  26037.47796296  .00000000  00000+0  00000-0 0  9999
2 85852  88.0000  24.0000 0000000   0.0000  16.0000 13.16009617    14
CTC2_L_00490003-02
1 85853U 22070BB  26037.47796296  .00000000  00000+0  00000-0 0  9997
2 85853  88.0000  24.0000 0000000   0.0000  76.0000 13.16009617    11
CTC2_L_00490003-03
1 85854U 24344SU  26037.47796296  .00000000  00000+0  00000-0 0  9994
2 85854  88.0000  24.0000 0000000   0.0000 136.0000 13.16009617    19
CTC2_L_00490003-04
1 85855U 26409KC  26037.47796296  .00000000  00000+0  00000-0 0  9999
2 85855  88.0000  24.0000 0000000   0.0000 196.0000 13.16009617    16
CTC2_L_00490003-05
1 85856U 25323QT  26037.47796296  .00000000  00000+0  00000-0 0  9994
2 85856  88.0000  24.0000 0000000   0.0000 256.0000 13.16009617    14
CTC2_L_00490003-06
1 85857U 23333DF  26037.47796296  .00000000  00000+0  00000-0 0  9994
2 85857  88.0000  24.0000 0000000   0.0000 316.0000 13.16009617    12
CTC2_L_00490004-01
1 85858U 22851BH  26037.47796296  .00000000  00000+0  00000-0 0  9999
2 85858  88.0000  36.0000 0000000   0.0000  24.0000 13.16009617    12
CTC2_L_00490004-02
1 85859U 23704NY  26037.47796296  .00000000  00000+0  00000-0 0  9998
2 85859  88.0000  36.0000 0000000   0.0000  84.0000 13.16009617    19
CTC2_L_00490004-03
1 85860U 25415QR  26037.47796296  .00000000  00000+0  00000-0 0  9991
2 85860  88.0000  36.0000 0000000   0.0000 144.0000 13.16009617    18
CTC2_L_00490004-04
1 85861U 25450CE  26037.47796296  .00000000  00000+0  00000-0 0  9991
2 85861  88.0000  36.0000 0000000   0.0000 204.0000 13.16009617    16
CTC2_L_00490004-05
1 85862U 26688EG  26037.47796296  .00000000  00000+0  00000-0 0  9996
2 85862  88.0000  36.0000 0000000   0.0000 264.0000 13.16009617    13
CTC2_L_00490004-06
1 85863U 22266Q   26037.47796296  .00000000  00000+0  00000-0 0  9995
2 85863  88.0000  36.0000 0000000   0.0000 324.0000 13.16009617    11
CTC2_L_00490005-01
1 85864U 23178RF  26037.47796296  .00000000  00000+0  00000-0 0  9999
2 85864  88.0000  48.0000 0000000   0.0000  32.0000 13.16009617    11
CTC2_L_00490005-02
1 85865U 23617MJ  26037.47796296  .00000000  00000+0  00000-0 0  9998
2 85865  88.0000  48.0000 0000000   0.0000  92.0000 13.16009617    18
CTC2_L_00490005-03
1 85866U 26578KH  26037.47796296  .00000000  00000+0  00000-0 0  9998
2 85866  88.0000  48.0000 0000000   0.0000 152.0000 13.16009617    16
CTC2_L_00490005-04
1 85867U 26283WG  26037.47796296  .00000000  00000+0  00000-0 0  9992
2 85867  88.0000  48.0000 0000000   0.0000 212.0000 13.16009617    14
CTC2_L_00490005-05
1 85868U 23368OX  26037.47796296  .00000000  00000+0  00000-0 0  9994
2 85868  88.0000  48.0000 0000000   0.0000 272.0000 13.16009617    11
CTC2_L_00490005-06
1 85869U 24245PW  26037.47796296  .00000000  00000+0  00000-0 0  9990
2 85869  88.0000  48.0000 0000000   0.0000 332.0000 13.16009617    19
CTC2_L_00490006-01
1 85870U 22191QT  26037.47796296  .00000000  00000+0  00000-0 0  9990
2 85870  88.0000  60.0000 0000000   0.0000  40.0000 13.16009617    11
CTC2_L_00490006-02
1 85871U 22988DC  26037.47796296  .00000000  00000+0  00000-0 0  9995
2 85871  88.0000  60.0000 0000000   0.0000 100.0000 13.16009617    19
CTC2_L_00490006-03
1 85872U 23447ZA  26037.47796296  .00000000  00000+0  00000-0 0  9997
2 85872  88.0000  60.0000 0000000   0.0000 160.0000 13.16009617    16
CTC2_L_00490006-04
1 85873U 23784KM  26037.47796296  .00000000  00000+0  00000-0 0  9992
2 85873  88.0000  60.0000 0000000   0.0000 220.0000 13.16009617    14
CTC2_L_00490006-05
1 85874U 25069K   26037.47796296  .00000000  00000+0  00000-0 0  9991
2 85874  88.0000  60.0000 0000000   0.0000 280.0000 13.16009617    11
CTC2_L_00490006-06
1 85875U 23032RI  26037.47796296  .00000000  00000+0  00000-0 0  9990
2 85875  88.0000  60.0000 0000000   0.0000 340.0000 13.16009617    19
CTC2_L_00490007-01
1 85876U 26728ZQ  26037.47796296  .00000000  00000+0  00000-0 0  9996
2 85876  88.0000  72.0000 0000000   0.0000  48.0000 13.16009617    18
CTC2_L_00490007-02
1 85877U 23213IA  26037.47796296  .00000000  00000+0  00000-0 0  9993
2 85877  88.0000  72.0000 0000000   0.0000 108.0000 13.16009617    16
CTC2_L_00490007-03
1 85878U 24038QE  26037.47796296  .00000000  00000+0  00000-0 0  9990
2 85878  88.0000  72.0000 0000000   0.0000 168.0000 13.16009617    13
CTC2_L_00490007-04
1 85879U 24017PS  26037.47796296  .00000000  00000+0  00000-0 0  9998
2 85879  88.0000  72.0000 0000000   0.0000 228.0000 13.16009617    11
CTC2_L_00490007-05
1 85880U 23411KH  26037.47796296  .00000000  00000+0  00000-0 0  9997
2 85880  88.0000  72.0000 0000000   0.0000 288.0000 13.16009617    19
CTC2_L_00490007-06
1 85881U 26027NP  26037.47796296  .00000000  00000+0  00000-0 0  9994
2 85881  88.0000  72.0000 0000000   0.0000 348.0000 13.16009617    17
CTC2_L_00490008-01
1 85882U 26081MB  26037.47796296  .00000000  00000+0  00000-0 0  9995
2 85882  88.0000  84.0000 0000000   0.0000  56.0000 13.16009617    17
CTC2_L_00490008-02
1 85883U 25671AS  26037.47796296  .00000000  00000+0  00000-0 0  9990
2 85883  88.0000  84.0000 0000000   0.0000 116.0000 13.16009617    15
CTC2_L_00490008-03
1 85884U 26878OJ  26037.47796296  .00000000  00000+0  00000-0 0  9991
2 85884  88.0000  84.0000 0000000   0.0000 176.0000 13.16009617    12
CTC2_L_00490008-04
1 85885U 24721OB  26037.47796296  .00000000  00000+0  00000-0 0  9997
2 85885  88.0000  84.0000 0000000   0.0000 236.0000 13.16009617    10
CTC2_L_00490008-05
1 85886U 25301JU  26037.47796296  .00000000  00000+0  00000-0 0  9993
2 85886  88.0000  84.0000 0000000   0.0000 296.0000 13.16009617    17
CTC2_L_00490008-06
1 85887U 25183BJ  26037.47796296  .00000000  00000+0  00000-0 0  9992
2 85887  88.0000  84.0000 0000000   0.0000 356.0000 13.16009617    15
CTC2_L_00490009-01
1 85888U 26412K   26037.47796296  .00000000  00000+0  00000-0 0  9999
2 85888  88.0000  96.0000 0000000   0.0000  64.0000 13.16009617    15
CTC2_L_00490009-02
1 85889U 22173VY  26037.47796296  .00000000  00000+0  00000-0 0  9990
2 85889  88.0000  96.0000 0000000   0.0000 124.0000 13.16009617    13
CTC2_L_00490009-03
1 85890U 23969AW  26037.47796296  .00000000  00000+0  00000-0 0  9996
2 85890  88.0000  96.0000 0000000   0.0000 184.0000 13.16009617    11
CTC2_L_00490009-04
1 85891U 26285KN  26037.47796296  .00000000  00000+0  00000-0 0  9991
2 85891  88.0000  96.0000 0000000   0.0000 244.0000 13.16009617    19
CTC2_L_00490009-05
1 85892U 23647MN  26037.47796296  .00000000  00000+0  00000-0 0  9991
2 85892  88.0000  96.0000 0000000   0.0000 304.0000 13.16009617    17
CTC2_L_00490009-06
1 85893U 25413YF  26037.47796296  .00000000  00000+0  00000-0 0  9995
2 85893  88.0000  96.0000 0000000   0.0000   4.0000 13.16009617    15
CTC2_L_00490010-01
1 85894U 25105VE  26037.47796296  .00000000  00000+0  00000-0 0  9994
2 85894  88.0000 108.0000 0000000   0.0000  72.0000 13.16009617    15
CTC2_L_00490010-02
1 85895U 26685PE  26037.47796296  .00000000  00000+0  00000-0 0  9999
2 85895  88.0000 108.0000 0000000   0.0000 132.0000 13.16009617    13
CTC2_L_00490010-03
1 85896U 26416X   26037.47796296  .00000000  00000+0  00000-0 0  9992
2 85896  88.0000 108.0000 0000000   0.0000 192.0000 13.16009617    10
CTC2_L_00490010-04
1 85897U 23966ER  26037.47796296  .00000000  00000+0  00000-0 0  9990
2 85897  88.0000 108.0000 0000000   0.0000 252.0000 13.16009617    18
CTC2_L_00490010-05
1 85898U 24593FK  26037.47796296  .00000000  00000+0  00000-0 0  9998
2 85898  88.0000 108.0000 0000000   0.0000 312.0000 13.16009617    16
CTC2_L_00490010-06
1 85899U 26473WB  26037.47796296  .00000000  00000+0  00000-0 0  9998
2 85899  88.0000 108.0000 0000000   0.0000  12.0000 13.16009617    14
CTC2_L_00490011-01
1 85900U 25906AX  26037.47796296  .00000000  00000+0  00000-0 0  9991
2 85900  88.0000 120.0000 0000000   0.0000  80.0000 13.16009617    16
CTC2_L_00490011-02
1 85901U 26285MA  26037.47796296  .00000000  00000+0  00000-0 0  9993
2 85901  88.0000 120.0000 0000000   0.0000 140.0000 13.16009617    14
